COSMOS 2433 (720)       
1 32275C 07052A   23192.99979167  .00000000  00000-0  00000-0 0  1922
2 32275  66.0361 351.7377 0001843 190.7489 117.1436  2.13104254    16
COSMOS 2432 (719)       
1 32276C 07052B   23192.99979167  .00000000  00000-0  00000-0 0  1923
2 32276  66.0503 351.8453 0008140 336.7176 278.4084  2.13103392    15
COSMOS 2434 (721)       
1 32393C 07065A   23192.99979167  .00000000  00000-0  00000-0 0  1927
2 32393  64.3382 228.1541 0000485 157.9602  40.9144  2.13103166    14
COSMOS 2436 (723)       
1 32395C 07065C   23192.99979167  .00000000  00000-0  00000-0 0  1929
2 32395  64.3469 228.2151 0015265 351.9342 342.5109  2.13102875    17
COSMOS 2456 (730)       
1 36111C 09070A   23192.99979167 -.00000000  00000-0  00000-0 0  1928
2 36111  64.4710 107.6729 0004297 317.4685  41.3783  2.13099186    10
COSMOS 2457 (733)       
1 36112C 09070B   23192.99979167 -.00000000  00000-0  00000-0 0  1929
2 36112  64.4549 107.5395 0003878 164.4617 324.7460  2.13101436    10
COSMOS 2460 (732)       
1 36402C 10007C   23192.99979167  .00000000  00000-0  00000-0 0  1922
2 36402  65.8997 350.4623 0002159 100.3283  16.6551  2.13106332    14
COSMOS 2476 (744)       
1 37867C 11064A   23192.99979167 -.00000000  00000-0  00000-0 0  1923
2 37867  64.7521 109.1794 0022138 238.1655  29.5394  2.13101661    19
COSMOS 2477 (745)       
1 37868C 11064B   23192.99979167 -.00000000  00000-0  00000-0 0  1924
2 37868  64.7595 109.2484 0019404 239.1062 206.5020  2.13101708    18
COSMOS 2475 (743)       
1 37869C 11064C   23192.99979167 -.00000000  00000-0  00000-0 0  1925
2 37869  64.7667 109.2600 0024061 255.3843 148.6270  2.13102064    10
COSMOS 2485 (747)       
1 39155C 13019A   23192.99979167 -.00000000  00000-0  00000-0 0  1927
2 39155  64.9129 109.6914 0022485 234.0850  77.9914  2.13101881    12
COSMOS 2492 (754)       
1 39620C 14012A   23192.99979167  .00000000  00000-0  00000-0 0  1927
2 39620  65.7838 350.0886 0010962 328.4244  17.9087  2.13103256    10
COSMOS 2500 (755)       
1 40001C 14032A   23192.99979167  .00000000  00000-0  00000-0 0  1924
2 40001  65.7222 349.9202 0006473 184.1889  21.0328  2.13106022    13
COSMOS 2501 (702K)      
1 40315C 14075A   23192.99979167  .00000000  00000-0  00000-0 0  1929
2 40315  63.6420 227.5557 0020159 211.2709 162.5535  2.13101451    14
COSMOS 2514 (751)       
1 41330C 16008A   23192.99979167  .00000000  00000-0  00000-0 0  1925
2 41330  65.5198 349.5152 0009933 199.6972 188.7263  2.13102702    17
COSMOS 2522 (752)       
1 42939C 17055A   23192.99979167  .00000000  00000-0  00000-0 0  1924
2 42939  64.1024 228.4506 0010016 241.7117 267.7941  2.13101993    10
COSMOS 2527 (756)       
1 43508C 18053A   23192.99979167 -.00000000  00000-0  00000-0 0  1927
2 43508  65.0746 109.7727 0008096 235.3945 305.9702  2.13102385    19
COSMOS 2529 (757)       
1 43687C 18086A   23192.99979167  .00000000  00000-0  00000-0 0  1920
2 43687  64.3176 228.8716 0011572 260.8934 204.1059  2.13102197    17
COSMOS 2534 (758)       
1 44299C 19030A   23192.99979167  .00000000  00000-0  00000-0 0  1920
2 44299  64.3902 228.7930 0013605 279.6466 319.6627  2.13102120    17
COSMOS 2544 (759)       
1 44850C 19088A   23192.99979167 -.00000000  00000-0  00000-0 0  1927
2 44850  65.0605 109.6167 0013019 260.0425 324.4641  2.13102112    16
COSMOS 2545 (760)       
1 45358C 20018A   23192.99979167  .00000000  00000-0  00000-0 0  1925
2 45358  64.8599 349.8046 0007643 236.1642 197.4071  2.13102615    17
COSMOS 2547 (705K)      
1 46805C 20075A   23192.99979167  .00000000  00000-0  00000-0 0  1926
2 46805  64.6172 228.3329 0008733 242.8243  45.4575  2.13103028    17
COSMOS 2557 (706K)      
1 52984C 20075A   23192.99979167  .00000000  00000-0  00000-0 0  1921
2 52984  64.7744 351.9695 0010581 281.2885 242.6077  2.13102206    15
COSMOS 2564 (761)       
1 54377C 22161A   23192.99979167  .00000000  00000-0  00000-0 0  1927
2 54377  64.7578 228.3761 0011146 225.7940 194.3066  2.13102276    10
